start=new Date('2022-11-11T00:00:00.000Z').valueOf();
sats=[{"PERIAPSIS":"546.067","ELEMENT_SET_NO":"999","TIME_SYSTEM":"UTC","DECAY_DATE":null,"RA_OF_ASC_NODE":"280.1145","MEAN_ANOMALY":"311.3037","PERIOD":"95.593","MEAN_ELEMENT_THEORY":"SGP4","REF_FRAME":"TEME","EPOCH":"2022-11-10T21:10:07.156128","TLE_LINE2":"2 44746  53.0544 280.1145 0001719  48.8100 311.3037 15.06385751165098","TLE_LINE1":"1 44746U 19074AK  22314.88202727 -.00001619  00000-0 -89856-4 0  9993","NORAD_CAT_ID":"44746","CENTER_NAME":"EARTH","SEMIMAJOR_AXIS":"6925.392","INCLINATION":"53.0544","EPHEMERIS_TYPE":"0","SITE":"AFETR","RCS_SIZE":"LARGE","OBJECT_NAME":"STARLINK-1041","LAUNCH_DATE":"2019-11-11","OBJECT_ID":"2019-074AK","GP_ID":"217367172","MEAN_MOTION_DDOT":"0.0000000000000","MEAN_MOTION_DOT":"-0.00001619","CLASSIFICATION_TYPE":"U","REV_AT_EPOCH":"16509","OBJECT_TYPE":"PAYLOAD","BSTAR":"-0.00008985600000","FILE":"3650843","ECCENTRICITY":"0.00017190","APOAPSIS":"548.448","ARG_OF_PERICENTER":"48.8100","COUNTRY_CODE":"US","MEAN_MOTION":"15.06385751"},{"TLE_LINE2":"2 44747  53.0542 281.1631 0001922  52.1877 307.9286 15.06404548165063","EPHEMERIS_TYPE":"0","INCLINATION":"53.0542","SEMIMAJOR_AXIS":"6925.335","CENTER_NAME":"EARTH","NORAD_CAT_ID":"44747","TLE_LINE1":"1 44747U 19074AL  22314.64611377 -.00000439  00000-0 -10552-4 0  9999","MEAN_ANOMALY":"307.9286","PERIOD":"95.592","REF_FRAME":"TEME","EPOCH":"2022-11-10T15:30:24.229728","MEAN_ELEMENT_THEORY":"SGP4","RA_OF_ASC_NODE":"281.1631","TIME_SYSTEM":"UTC","ELEMENT_SET_NO":"999","PERIAPSIS":"545.869","DECAY_DATE":null,"MEAN_MOTION":"15.06404548","APOAPSIS":"548.531","ECCENTRICITY":"0.00019220","COUNTRY_CODE":"US","ARG_OF_PERICENTER":"52.1877","REV_AT_EPOCH":"16506","CLASSIFICATION_TYPE":"U","FILE":"3650843","BSTAR":"-0.00001055200000","OBJECT_TYPE":"PAYLOAD","RCS_SIZE":"LARGE","SITE":"AFETR","GP_ID":"217367917","MEAN_MOTION_DOT":"-0.00000439","MEAN_MOTION_DDOT":"0.0000000000000","OBJECT_ID":"2019-074AL","LAUNCH_DATE":"2019-11-11","OBJECT_NAME":"STARLINK-1042"},{"RCS_SIZE":"LARGE","SITE":"AFETR","MEAN_MOTION_DOT":"-0.00003562","GP_ID":"217306386","MEAN_MOTION_DDOT":"0.0000000000000","OBJECT_ID":"2019-074AM","LAUNCH_DATE":"2019-11-11","OBJECT_NAME":"STARLINK-1043","REV_AT_EPOCH":"16502","CLASSIFICATION_TYPE":"U","FILE":"3650424","BSTAR":"-0.00022045000000","OBJECT_TYPE":"PAYLOAD","APOAPSIS":"548.451","ECCENTRICITY":"0.00017170","COUNTRY_CODE":"US","ARG_OF_PERICENTER":"48.6210","MEAN_MOTION":"15.06384337","TIME_SYSTEM":"UTC","ELEMENT_SET_NO":"999","PERIAPSIS":"546.072","DECAY_DATE":null,"RA_OF_ASC_NODE":"282.2287","MEAN_ANOMALY":"311.4926","MEAN_ELEMENT_THEORY":"SGP4","PERIOD":"95.593","REF_FRAME":"TEME","EPOCH":"2022-11-10T09:50:43.742400","TLE_LINE2":"2 44748  53.0547 282.2287 0001717  48.6210 311.4926 15.06384337165021","EPHEMERIS_TYPE":"0","SEMIMAJOR_AXIS":"6925.397","INCLINATION":"53.0547","CENTER_NAME":"EARTH","TLE_LINE1":"1 44748U 19074AM  22314.41022850 -.00003562  00000-0 -22045-3 0  9996","NORAD_CAT_ID":"44748"},{"SITE":"AFETR","RCS_SIZE":"LARGE","OBJECT_NAME":"STARLINK-1046","LAUNCH_DATE":"2019-11-11","MEAN_MOTION_DDOT":"0.0000000000000","GP_ID":"217366423","MEAN_MOTION_DOT":"-0.00003881","OBJECT_ID":"2019-074AQ","CLASSIFICATION_TYPE":"U","REV_AT_EPOCH":"16505","OBJECT_TYPE":"PAYLOAD","BSTAR":"-0.00024190000000","FILE":"3650843","ECCENTRICITY":"0.00017460","APOAPSIS":"548.473","ARG_OF_PERICENTER":"48.8419","COUNTRY_CODE":"US","MEAN_MOTION":"15.06383620","PERIAPSIS":"546.055","ELEMENT_SET_NO":"999","TIME_SYSTEM":"UTC","DECAY_DATE":null,"RA_OF_ASC_NODE":"281.2739","MEAN_ANOMALY":"311.2720","PERIOD":"95.593","MEAN_ELEMENT_THEORY":"SGP4","REF_FRAME":"TEME","EPOCH":"2022-11-10T14:58:33.839328","TLE_LINE2":"2 44751  53.0539 281.2739 0001746  48.8419 311.2720 15.06383620165059","TLE_LINE1":"1 44751U 19074AQ  22314.62400277 -.00003881  00000-0 -24190-3 0  9993","NORAD_CAT_ID":"44751","SEMIMAJOR_AXIS":"6925.399","CENTER_NAME":"EARTH","INCLINATION":"53.0539","EPHEMERIS_TYPE":"0"},{"RA_OF_ASC_NODE":"261.4775","DECAY_DATE":null,"PERIAPSIS":"545.971","TIME_SYSTEM":"UTC","ELEMENT_SET_NO":"999","SEMIMAJOR_AXIS":"6925.389","CENTER_NAME":"EARTH","INCLINATION":"53.0533","NORAD_CAT_ID":"44752","TLE_LINE1":"1 44752U 19074AR  22314.57793326 -.00005435  00000-0 -34633-3 0  9998","EPHEMERIS_TYPE":"0","TLE_LINE2":"2 44752  53.0533 261.4775 0001852  45.6963 314.4178 15.06386874165327","EPOCH":"2022-11-10T13:52:13.433664","PERIOD":"95.593","REF_FRAME":"TEME","MEAN_ELEMENT_THEORY":"SGP4","MEAN_ANOMALY":"314.4178","BSTAR":"-0.00034633000000","OBJECT_TYPE":"PAYLOAD","FILE":"3650843","REV_AT_EPOCH":"16532","CLASSIFICATION_TYPE":"U","LAUNCH_DATE":"2019-11-11","OBJECT_NAME":"STARLINK-1047","GP_ID":"217366673","MEAN_MOTION_DOT":"-0.00005435","MEAN_MOTION_DDOT":"0.0000000000000","OBJECT_ID":"2019-074AR","SITE":"AFETR","RCS_SIZE":"LARGE","MEAN_MOTION":"15.06386874","COUNTRY_CODE":"US","ARG_OF_PERICENTER":"45.6963","APOAPSIS":"548.536","ECCENTRICITY":"0.00018520"},{"MEAN_ANOMALY":"308.0802","EPOCH":"2022-11-10T12:24:37.565280","PERIOD":"95.592","MEAN_ELEMENT_THEORY":"SGP4","REF_FRAME":"TEME","TLE_LINE2":"2 44753  53.0549 241.7491 0001550  52.0327 308.0802 15.06398123165763","EPHEMERIS_TYPE":"0","NORAD_CAT_ID":"44753","TLE_LINE1":"1 44753U 19074AS  22314.51710145 -.00002057  00000-0 -11927-3 0  9999","SEMIMAJOR_AXIS":"6925.354","INCLINATION":"53.0549","CENTER_NAME":"EARTH","ELEMENT_SET_NO":"999","TIME_SYSTEM":"UTC","PERIAPSIS":"546.146","DECAY_DATE":null,"RA_OF_ASC_NODE":"241.7491","ECCENTRICITY":"0.00015500","APOAPSIS":"548.293","ARG_OF_PERICENTER":"52.0327","COUNTRY_CODE":"US","MEAN_MOTION":"15.06398123","RCS_SIZE":"LARGE","SITE":"AFETR","MEAN_MOTION_DDOT":"0.0000000000000","GP_ID":"217343394","MEAN_MOTION_DOT":"-0.00002057","OBJECT_ID":"2019-074AS","OBJECT_NAME":"STARLINK-1048","LAUNCH_DATE":"2019-11-11","CLASSIFICATION_TYPE":"U","REV_AT_EPOCH":"16576","FILE":"3650623","OBJECT_TYPE":"PAYLOAD","BSTAR":"-0.00011927000000"},{"REV_AT_EPOCH":"16559","CLASSIFICATION_TYPE":"U","BSTAR":"-0.00038198000000","OBJECT_TYPE":"PAYLOAD","FILE":"3650424","SITE":"AFETR","RCS_SIZE":"LARGE","LAUNCH_DATE":"2019-11-11","OBJECT_NAME":"STARLINK-1049","MEAN_MOTION_DDOT":"0.0000000000000","GP_ID":"217306885","MEAN_MOTION_DOT":"-0.00005963","OBJECT_ID":"2019-074AT","MEAN_MOTION":"15.06373865","APOAPSIS":"548.598","ECCENTRICITY":"0.00018830","COUNTRY_CODE":"US","ARG_OF_PERICENTER":"42.5948","RA_OF_ASC_NODE":"241.7303","PERIAPSIS":"545.990","TIME_SYSTEM":"UTC","ELEMENT_SET_NO":"999","DECAY_DATE":null,"TLE_LINE2":"2 44754  53.0540 241.7303 0001883  42.5948 317.5187 15.06373865165597","SEMIMAJOR_AXIS":"6925.429","INCLINATION":"53.0540","CENTER_NAME":"EARTH","NORAD_CAT_ID":"44754","TLE_LINE1":"1 44754U 19074AT  22314.52080564 -.00005963  00000-0 -38198-3 0  9994","EPHEMERIS_TYPE":"0","MEAN_ANOMALY":"317.5187","EPOCH":"2022-11-10T12:29:57.607296","PERIOD":"95.594","REF_FRAME":"TEME","MEAN_ELEMENT_THEORY":"SGP4"},{"LAUNCH_DATE":"2019-11-11","OBJECT_NAME":"STARLINK-1052","GP_ID":"217366923","OBJECT_ID":"2019-074AW","MEAN_MOTION_DDOT":"0.0000000000000","MEAN_MOTION_DOT":"0.00001684","SITE":"AFETR","RCS_SIZE":"LARGE","BSTAR":"0.00013186000000","OBJECT_TYPE":"PAYLOAD","FILE":"3650843","REV_AT_EPOCH":"16532","CLASSIFICATION_TYPE":"U","COUNTRY_CODE":"US","ARG_OF_PERICENTER":"67.5022","APOAPSIS":"548.202","ECCENTRICITY":"0.00015010","MEAN_MOTION":"15.06416636","DECAY_DATE":null,"PERIAPSIS":"546.123","TIME_SYSTEM":"UTC","ELEMENT_SET_NO":"999","RA_OF_ASC_NODE":"261.4284","PERIOD":"95.591","EPOCH":"2022-11-10T14:08:06.089568","REF_FRAME":"TEME","MEAN_ELEMENT_THEORY":"SGP4","MEAN_ANOMALY":"292.6126","SEMIMAJOR_AXIS":"6925.298","INCLINATION":"53.0539","CENTER_NAME":"EARTH","TLE_LINE1":"1 44757U 19074AW  22314.58895937  .00001684  00000-0  13186-3 0  9995","NORAD_CAT_ID":"44757","EPHEMERIS_TYPE":"0","TLE_LINE2":"2 44757  53.0539 261.4284 0001501  67.5022 292.6126 15.06416636165323"},{"TLE_LINE2":"2 44758  53.0554 281.4299 0001454  63.4102 296.7036 15.06374674165050","TLE_LINE1":"1 44758U 19074AX  22314.60559099 -.00005386  00000-0 -34321-3 0  9994","NORAD_CAT_ID":"44758","INCLINATION":"53.0554","SEMIMAJOR_AXIS":"6925.426","CENTER_NAME":"EARTH","EPHEMERIS_TYPE":"0","MEAN_ANOMALY":"296.7036","EPOCH":"2022-11-10T14:32:03.061536","PERIOD":"95.594","REF_FRAME":"TEME","MEAN_ELEMENT_THEORY":"SGP4","RA_OF_ASC_NODE":"281.4299","PERIAPSIS":"546.284","ELEMENT_SET_NO":"999","TIME_SYSTEM":"UTC","DECAY_DATE":null,"MEAN_MOTION":"15.06374674","ECCENTRICITY":"0.00014540","APOAPSIS":"548.298","ARG_OF_PERICENTER":"63.4102","COUNTRY_CODE":"US","CLASSIFICATION_TYPE":"U","REV_AT_EPOCH":"16505","OBJECT_TYPE":"PAYLOAD","BSTAR":"-0.00034321000000","FILE":"3650843","SITE":"AFETR","RCS_SIZE":"LARGE","OBJECT_NAME":"STARLINK-1053","LAUNCH_DATE":"2019-11-11","GP_ID":"217367173","MEAN_MOTION_DDOT":"0.0000000000000","MEAN_MOTION_DOT":"-0.00005386","OBJECT_ID":"2019-074AX"},{"SEMIMAJOR_AXIS":"6925.405","INCLINATION":"53.0550","CENTER_NAME":"EARTH","NORAD_CAT_ID":"44759","TLE_LINE1":"1 44759U 19074AY  22314.65349266  .00009233  00000-0  63826-3 0  9998","EPHEMERIS_TYPE":"0","TLE_LINE2":"2 44759  53.0550 281.1311 0001431  69.5987 290.5156 15.06381596162707","PERIOD":"95.593","MEAN_ELEMENT_THEORY":"SGP4","REF_FRAME":"TEME","EPOCH":"2022-11-10T15:41:01.765824","MEAN_ANOMALY":"290.5156","RA_OF_ASC_NODE":"281.1311","DECAY_DATE":null,"PERIAPSIS":"546.279","TIME_SYSTEM":"UTC","ELEMENT_SET_NO":"999","MEAN_MOTION":"15.06381596","COUNTRY_CODE":"US","ARG_OF_PERICENTER":"69.5987","APOAPSIS":"548.261","ECCENTRICITY":"0.00014310","BSTAR":"0.00063826000000","OBJECT_TYPE":"PAYLOAD","FILE":"3650843","REV_AT_EPOCH":"16270","CLASSIFICATION_TYPE":"U","LAUNCH_DATE":"2019-11-11","OBJECT_NAME":"STARLINK-1054","GP_ID":"217367918","MEAN_MOTION_DDOT":"0.0000000000000","MEAN_MOTION_DOT":"0.00009233","OBJECT_ID":"2019-074AY","SITE":"AFETR","RCS_SIZE":"LARGE"}];
